GLOBALSTAR M032         
1 25852U 99037B   24196.59909635 -.00000033  00000+0  10696-2 0  9998
2 25852  51.9965 296.3067 0009577 317.6216  42.3843 11.19059586 96998
GLOBALSTAR M051         
1 25853U 99037C   24196.86748589 -.00000097  00000+0 -62583-3 0  9992
2 25853  51.9782 134.6283 0001740 342.7213  17.3538 11.42199653 93840
GLOBALSTAR M048         
1 25872U 99041A   24196.90188574 -.00000081  00000+0 -29696-3 0  9996
2 25872  51.9383  56.5395 0013259 324.4100  48.6505 11.33847191 86721
GLOBALSTAR M026         
1 25873U 99041B   24196.77441971 -.00000013  00000+0  18984-2 0  9996
2 25873  51.9967 208.9320 0001200  34.9727 135.9922 11.06833951111127
GLOBALSTAR M043         
1 25874U 99041C   24196.92895624 -.00000023  00000+0  13409-2 0  9990
2 25874  51.9378 150.6764 0012345  93.4172 338.4851 11.25680587 84895
